CRE (WAAS/PRN 138)      
1 28868U 05036A   23011.67685130 -.00000058  00000+0  00000+0 0  9991
2 28868   1.0878  91.7516 0000881 228.6202 286.9031  1.00271199 33898
IOR-W (EGNOS/PRN 126)   
1 28899U 05044A   23011.76621478  .00000026  00000+0  00000+0 0  9993
2 28899   3.6672  39.1623 0003028 257.8543 153.6927  1.00270493 62965
QZS-1 (QZSS/PRN 183)    
1 37158U 10045A   23011.65524434 -.00000148  00000+0  00000+0 0  9996
2 37158  42.5597 130.5231 0759374 270.5166  81.5419  1.00254386 45180
GSAT-8 (GAGAN/PRN 127)  
1 37605U 11022A   23011.82752127  .00000101  00000+0  00000+0 0  9998
2 37605   0.0314 100.9062 0008443 171.3839 191.7624  1.00272908 40665
LUCH 5A (SDCM/PRN 140)  
1 37951U 11074B   23011.79433052 -.00000032  00000+0  00000+0 0  9992
2 37951   5.5433  93.8050 0002394 180.5201 289.6637  1.00274840 40637
SES-5 (EGNOS/PRN 136)   
1 38652U 12036A   23011.84272622  .00000051  00000+0  00000+0 0  9990
2 38652   0.0555 293.4476 0001967 354.4828 131.5044  1.00272161 31926
GSAT-10 (GAGAN/PRN 128) 
1 38779U 12051B   23012.00155229 -.00000148  00000+0  00000+0 0  9997
2 38779   0.0817 271.8637 0004704 354.9829 287.9480  1.00272713 37732
LUCH 5B (SDCM/PRN 125)  
1 38977U 12061A   23011.89632821 -.00000122  00000+0  00000+0 0  9994
2 38977   7.7434  61.0363 0001839 168.9211 187.5160  1.00271637 37611
ASTRA 5B (EGNOS/PRN 123)
1 39617U 14011B   23011.84795611  .00000172  00000+0  00000+0 0  9999
2 39617   0.0339 356.0625 0004001 298.7523 153.0058  1.00271558 32119
LUCH 5V (SDCM/PRN 141)  
1 39727U 14023A   23011.77779006 -.00000253  00000+0  00000+0 0  9997
2 39727   2.0000  77.2322 0003099 235.7907 172.7425  1.00270910 31809
GSAT-15 (GAGAN/PRN 139) 
1 41028U 15065A   23012.00367684 -.00000240  00000+0  00000+0 0  9999
2 41028   0.0941 270.2716 0001930 331.9981 323.7470  1.00269438 26303
E 117 W B (WAAS/PRN 131)
1 41589U 16038B   23010.54175730  .00000003  00000+0  00000+0 0  9994
2 41589   0.0075 207.0279 0000112 223.3250 117.4589  1.00272966 24137
SES-15 (WAAS/PRN 133)   
1 42709U 17026A   23011.74422983  .00000077  00000+0  00000+0 0  9996
2 42709   0.0173   4.4528 0000412 295.0704 310.2101  1.00270545 21580
QZS-2 (QZSS/PRN 184)    
1 42738U 17028A   23011.54824493 -.00000121  00000+0  00000+0 0  9991
2 42738  41.4261 261.2187 0754339 269.7136 278.4342  1.00279160 20587
QZS-3 (QZSS/PRN 189)    
1 42917U 17048A   23011.86704524 -.00000331  00000+0  00000+0 0  9992
2 42917   0.0620 168.4380 0002327 141.5667 240.2737  1.00271254 19701
QZS-4 (QZSS/PRN 185)    
1 42965U 17062A   23002.81368800 -.00000364  00000+0  00000+0 0  9995
2 42965  40.7180 359.5598 0750956 271.8631 258.8664  1.00250617 19159
GALAXY 30 (WAAS/PRN 135)
1 46114U 20056C   23011.27262795  .00000053  00000+0  00000+0 0  9992
2 46114   0.0188  50.7714 0002162 248.1358 144.7455  1.00272499  8722
